{"type": "FeatureCollection", "features": [ {"type": "Feature", "properties": {"norad_id": 52912, "name": "GAOFEN-12 03", "group": "resource", "lat": -35.292332652919576, "lon": -112.62021041141163, "alt_km": 636.7328192346895, "timestamp": "2025-12-20T14:38:01.616352+00:00", "meta": {"OBJECT_NAME": "GAOFEN-12 03", "OBJECT_ID": "2022-069A", "EPOCH": "2025-12-20T06:40:46.505856", "MEAN_MOTION": 14.79626681, "ECCENTRICITY": 0.00020261, "INCLINATION": 97.8488, "RA_OF_ASC_NODE": 241.4527, "ARG_OF_PERICENTER": 52.8146, "MEAN_ANOMALY": 307.3251, "EPHEMERIS_TYPE": 0, "CLASSIFICATION_TYPE": "U", "NORAD_CAT_ID": 52912, "ELEMENT_SET_NO": 999, "REV_AT_EPOCH": 18815, "BSTAR": 0.00013635425, "MEAN_MOTION_DOT": 9.71e-06, "MEAN_MOTION_DDOT": 0}, "tle": {"line1": "1 52912U 22069A   25354.27831604  .00000971  00000+0  13635-3 0  9995", "line2": "2 52912  97.8488 241.4527 0002026  52.8146 307.3251 14.79626681188150"}}, "geometry": {"type": "Point", "coordinates": [-112.62021041141163, -35.292332652919576]}}, {"type": "Feature", "properties": {"norad_id": 54754, "name": "SWOT", "group": "resource", "lat": -34.642006860942736, "lon": 105.10168726987793, "alt_km": 899.3819177134674, "timestamp": "2025-12-20T14:38:01.616362+00:00", "meta": {"OBJECT_NAME": "SWOT", "OBJECT_ID": "2022-173A", "EPOCH": "2025-12-20T05:01:59.918592", "MEAN_MOTION": 14.0016793, "ECCENTRICITY": 3.539e-05, "INCLINATION": 77.6109, "RA_OF_ASC_NODE": 276.9062, "ARG_OF_PERICENTER": 92.2266, "MEAN_ANOMALY": 267.8926, "EPHEMERIS_TYPE": 0, "CLASSIFICATION_TYPE": "U", "NORAD_CAT_ID": 54754, "ELEMENT_SET_NO": 999, "REV_AT_EPOCH": 15410, "BSTAR": 1.6678437e-05, "MEAN_MOTION_DOT": 2.2e-07, "MEAN_MOTION_DDOT": 0}, "tle": {"line1": "1 54754U 22173A   25354.20972128  .00000022  00000+0  16678-4 0  9995", "line2": "2 54754  77.6109 276.9062 0000353  92.2266 267.8926 14.00167930154109"}}, "geometry": {"type": "Point", "coordinates": [105.10168726987793, -34.642006860942736]}}, {"type": "Feature", "properties": {"norad_id": 57654, "name": "GAOFEN-12 04", "group": "resource", "lat": 42.67297692101051, "lon": 97.61419952785019, "alt_km": 626.2886793971202, "timestamp": "2025-12-20T14:38:01.616392+00:00", "meta": {"OBJECT_NAME": "GAOFEN-12 04", "OBJECT_ID": "2023-123A", "EPOCH": "2025-12-20T07:31:34.932864", "MEAN_MOTION": 14.79720073, "ECCENTRICITY": 0.00012354, "INCLINATION": 97.9127, "RA_OF_ASC_NODE": 269.9559, "ARG_OF_PERICENTER": 77.1731, "MEAN_ANOMALY": 282.9618, "EPHEMERIS_TYPE": 0, "CLASSIFICATION_TYPE": "U", "NORAD_CAT_ID": 57654, "ELEMENT_SET_NO": 999, "REV_AT_EPOCH": 12617, "BSTAR": 0.00013280538, "MEAN_MOTION_DOT": 9.46e-06, "MEAN_MOTION_DDOT": 0}, "tle": {"line1": "1 57654U 23123A   25354.31359876  .00000946  00000+0  13281-3 0  9995", "line2": "2 57654  97.9127 269.9559 0001235  77.1731 282.9618 14.79720073126179"}}, "geometry": {"type": "Point", "coordinates": [97.61419952785019, 42.67297692101051]}}, {"type": "Feature", "properties": {"norad_id": 59065, "name": "PARS 1", "group": "resource", "lat": 69.76032690777815, "lon": 166.53866060333252, "alt_km": 431.946791279619, "timestamp": "2025-12-20T14:38:01.616405+00:00", "meta": {"OBJECT_NAME": "PARS 1", "OBJECT_ID": "2024-039Q", "EPOCH": "2025-12-20T06:22:21.720288", "MEAN_MOTION": 15.41134685, "ECCENTRICITY": 0.0012074, "INCLINATION": 97.4639, "RA_OF_ASC_NODE": 325.3585, "ARG_OF_PERICENTER": 49.5003, "MEAN_ANOMALY": 310.7293, "EPHEMERIS_TYPE": 0, "CLASSIFICATION_TYPE": "U", "NORAD_CAT_ID": 59065, "ELEMENT_SET_NO": 999, "REV_AT_EPOCH": 10104, "BSTAR": 0.000213369, "MEAN_MOTION_DOT": 8.771e-05, "MEAN_MOTION_DDOT": 0}, "tle": {"line1": "1 59065U 24039Q   25354.26552917  .00008771  00000+0  21337-3 0  9990", "line2": "2 59065  97.4639 325.3585 0012074  49.5003 310.7293 15.41134685101040"}}, "geometry": {"type": "Point", "coordinates": [166.53866060333252, 69.76032690777815]}}, {"type": "Feature", "properties": {"norad_id": 59371, "name": "RESURS-P 4", "group": "resource", "lat": -2.5760092782123083, "lon": -58.89309077179001, "alt_km": 472.53791621621804, "timestamp": "2025-12-20T14:38:01.616421+00:00", "meta": {"OBJECT_NAME": "RESURS-P 4", "OBJECT_ID": "2024-061A", "EPOCH": "2025-12-20T06:48:28.209312", "MEAN_MOTION": 15.32141138, "ECCENTRICITY": 0.00010169, "INCLINATION": 97.2556, "RA_OF_ASC_NODE": 300.459, "ARG_OF_PERICENTER": 61.1175, "MEAN_ANOMALY": 299.0169, "EPHEMERIS_TYPE": 0, "CLASSIFICATION_TYPE": "U", "NORAD_CAT_ID": 59371, "ELEMENT_SET_NO": 999, "REV_AT_EPOCH": 9636, "BSTAR": 9.716786e-05, "MEAN_MOTION_DOT": 2.939e-05, "MEAN_MOTION_DDOT": 0}, "tle": {"line1": "1 59371U 24061A   25354.28365983  .00002939  00000+0  97168-4 0  9998", "line2": "2 59371  97.2556 300.4590 0001016  61.1175 299.0169 15.32141138 96360"}}, "geometry": {"type": "Point", "coordinates": [-58.89309077179001, -2.5760092782123083]}}, {"type": "Feature", "properties": {"norad_id": 59625, "name": "LEGION 1", "group": "resource", "lat": 38.046036622249076, "lon": -104.8842159071504, "alt_km": 515.4808233055955, "timestamp": "2025-12-20T14:38:01.616433+00:00", "meta": {"OBJECT_NAME": "LEGION 1", "OBJECT_ID": "2024-081A", "EPOCH": "2025-12-20T04:30:37.606464", "MEAN_MOTION": 15.16547121, "ECCENTRICITY": 0.00036341, "INCLINATION": 97.5209, "RA_OF_ASC_NODE": 68.7631, "ARG_OF_PERICENTER": 283.7552, "MEAN_ANOMALY": 76.3276, "EPHEMERIS_TYPE": 0, "CLASSIFICATION_TYPE": "U", "NORAD_CAT_ID": 59625, "ELEMENT_SET_NO": 999, "REV_AT_EPOCH": 9040, "BSTAR": 0.00015829341, "MEAN_MOTION_DOT": 3.02e-05, "MEAN_MOTION_DDOT": 0}, "tle": {"line1": "1 59625U 24081A   25354.18793526  .00003020  00000+0  15829-3 0  9994", "line2": "2 59625  97.5209  68.7631 0003634 283.7552  76.3276 15.16547121 90407"}}, "geometry": {"type": "Point", "coordinates": [-104.8842159071504, 38.046036622249076]}}, {"type": "Feature", "properties": {"norad_id": 59626, "name": "LEGION 2", "group": "resource", "lat": -38.039958653210334, "lon": 75.2026673918642, "alt_km": 520.8881329459691, "timestamp": "2025-12-20T14:38:01.616444+00:00", "meta": {"OBJECT_NAME": "LEGION 2", "OBJECT_ID": "2024-081B", "EPOCH": "2025-12-20T03:43:05.373984", "MEAN_MOTION": 15.16560521, "ECCENTRICITY": 0.00056316, "INCLINATION": 97.5213, "RA_OF_ASC_NODE": 68.8182, "ARG_OF_PERICENTER": 261.3261, "MEAN_ANOMALY": 98.7334, "EPHEMERIS_TYPE": 0, "CLASSIFICATION_TYPE": "U", "NORAD_CAT_ID": 59626, "ELEMENT_SET_NO": 999, "REV_AT_EPOCH": 9040, "BSTAR": 0.00019481139, "MEAN_MOTION_DOT": 3.735e-05, "MEAN_MOTION_DDOT": 0}, "tle": {"line1": "1 59626U 24081B   25354.15492331  .00003735  00000+0  19481-3 0  9993", "line2": "2 59626  97.5213  68.8182 0005631 261.3261  98.7334 15.16560521 90405"}}, "geometry": {"type": "Point", "coordinates": [75.2026673918642, -38.039958653210334]}}, {"type": "Feature", "properties": {"norad_id": 60182, "name": "ALOS-4 (DAICHI-4)", "group": "resource", "lat": 10.309640994738299, "lon": 87.89310163077079, "alt_km": 632.5555399330324, "timestamp": "2025-12-20T14:38:01.616454+00:00", "meta": {"OBJECT_NAME": "ALOS-4 (DAICHI-4)", "OBJECT_ID": "2024-123A", "EPOCH": "2025-12-20T06:28:15.405600", "MEAN_MOTION": 14.79475593, "ECCENTRICITY": 0.0001387, "INCLINATION": 97.9224, "RA_OF_ASC_NODE": 89.0094, "ARG_OF_PERICENTER": 101.524, "MEAN_ANOMALY": 258.6128, "EPHEMERIS_TYPE": 0, "CLASSIFICATION_TYPE": "U", "NORAD_CAT_ID": 60182, "ELEMENT_SET_NO": 999, "REV_AT_EPOCH": 7942, "BSTAR": 0.00020162618, "MEAN_MOTION_DOT": 1.455e-05, "MEAN_MOTION_DDOT": 0}, "tle": {"line1": "1 60182U 24123A   25354.26962275  .00001455  00000+0  20163-3 0  9996", "line2": "2 60182  97.9224  89.0094 0001387 101.5240 258.6128 14.79475593 79422"}}, "geometry": {"type": "Point", "coordinates": [87.89310163077079, 10.309640994738299]}}, {"type": "Feature", "properties": {"norad_id": 60452, "name": "LEGION 3", "group": "resource", "lat": 38.3128333260237, "lon": -39.81798855707515, "alt_km": 523.3561131467031, "timestamp": "2025-12-20T14:38:01.616464+00:00", "meta": {"OBJECT_NAME": "LEGION 3", "OBJECT_ID": "2024-146A", "EPOCH": "2025-12-20T01:42:39.461184", "MEAN_MOTION": 15.15833125, "ECCENTRICITY": 0.00156324, "INCLINATION": 45.0021, "RA_OF_ASC_NODE": 270.828, "ARG_OF_PERICENTER": 238.1588, "MEAN_ANOMALY": 121.7769, "EPHEMERIS_TYPE": 0, "CLASSIFICATION_TYPE": "U", "NORAD_CAT_ID": 60452, "ELEMENT_SET_NO": 999, "REV_AT_EPOCH": 7484, "BSTAR": 0.00017540335, "MEAN_MOTION_DOT": 3.154e-05, "MEAN_MOTION_DDOT": 0}, "tle": {"line1": "1 60452U 24146A   25354.07129006  .00003154  00000+0  17540-3 0  9990", "line2": "2 60452  45.0021 270.8280 0015632 238.1588 121.7769 15.15833125 74840"}}, "geometry": {"type": "Point", "coordinates": [-39.81798855707515, 38.3128333260237]}}, {"type": "Feature", "properties": {"norad_id": 60453, "name": "LEGION 4", "group": "resource", "lat": 37.71094853436254, "lon": 50.30819562968374, "alt_km": 510.07320542052366, "timestamp": "2025-12-20T14:38:01.616474+00:00", "meta": {"OBJECT_NAME": "LEGION 4", "OBJECT_ID": "2024-146B", "EPOCH": "2025-12-20T03:18:01.161216", "MEAN_MOTION": 15.1589566, "ECCENTRICITY": 0.00087579, "INCLINATION": 45.0393, "RA_OF_ASC_NODE": 2.2456, "ARG_OF_PERICENTER": 350.7384, "MEAN_ANOMALY": 9.3332, "EPHEMERIS_TYPE": 0, "CLASSIFICATION_TYPE": "U", "NORAD_CAT_ID": 60453, "ELEMENT_SET_NO": 999, "REV_AT_EPOCH": 7370, "BSTAR": 0.00018604449, "MEAN_MOTION_DOT": 3.362e-05, "MEAN_MOTION_DDOT": 0}, "tle": {"line1": "1 60453U 24146B   25354.13751344  .00003362  00000+0  18604-3 0  9997", "line2": "2 60453  45.0393   2.2456 0008757 350.7384   9.3332 15.15895660 73703"}}, "geometry": {"type": "Point", "coordinates": [50.30819562968374, 37.71094853436254]}}]}